{
"type": "FeatureCollection",
"name": "water",
"crs": { "type": "name", "properties": { "name": "urn:ogc:def:crs:OGC:1.3:CRS84" } },
"features": [
{ "type": "Feature", "properties": { "pipe_id": 4, "pipe_name": "BW4", "diameter": 200, "material": "copper" }, "geometry": { "type": "LineString", "coordinates": [ [ 74.619193895055616, 42.859274411929384, -15.0 ], [ 74.619303979746746, 42.861033794320882, -15.0 ], [ 74.619418076367481, 42.862140970137474, -15.0 ] ] } },
{ "type": "Feature", "properties": { "pipe_id": 5, "pipe_name": "BW5", "diameter": 200, "material": "paper" }, "geometry": { "type": "LineString", "coordinates": [ [ 74.616033378820575, 42.859896311978794, -15.0 ], [ 74.615495589779897, 42.859973564128559, -15.0 ], [ 74.615199584330483, 42.860051626599279, -15.0 ], [ 74.614983559218047, 42.860228778419206, -15.0 ], [ 74.614982269819492, 42.86043629846494, -15.0 ], [ 74.614981471613547, 42.860564763251354, -15.0 ], [ 74.614820341765068, 42.860554339187296, -15.0 ], [ 74.614808629146324, 42.860277600612683, -15.0 ], [ 74.614513789408207, 42.860167905070327, -15.0 ], [ 74.61384204030125, 42.860185405667991, -15.0 ], [ 74.613385272903727, 42.860193746336371, -15.0 ] ] } },
{ "type": "Feature", "properties": { "pipe_id": 6, "pipe_name": "BW6", "diameter": 300, "material": "gold" }, "geometry": { "type": "LineString", "coordinates": [ [ 74.616520022724998, 42.863742084099172, -15.0 ], [ 74.615727458217037, 42.863739426797601, -15.0 ], [ 74.614585136417332, 42.863814644040644, -15.0 ], [ 74.613429501912023, 42.86387004072219, -15.0 ], [ 74.612770836921399, 42.863936989711625, -15.0 ], [ 74.612804714334274, 42.864964843318511, -15.0 ], [ 74.612906749536847, 42.865834813529396, -15.0 ], [ 74.612955422200912, 42.866645310526174, -15.0 ] ] } },
{ "type": "Feature", "properties": { "pipe_id": 3, "pipe_name": "BW2", "diameter": 300, "material": "copper" }, "geometry": { "type": "LineString", "coordinates": [ [ 74.613479973510238, 42.86223966320339, -15.0 ], [ 74.616113019336169, 42.86221887541042, -15.0 ], [ 74.616090561740876, 42.86150728812823, -15.0 ], [ 74.616133676237297, 42.861052855539192, -15.0 ], [ 74.616016578461497, 42.860439771895024, -15.0 ], [ 74.615856796487634, 42.860211947312642, -15.0 ], [ 74.615938677866012, 42.860004697611302, -15.0 ], [ 74.616114585784942, 42.859797763137806, -15.0 ], [ 74.616397951705864, 42.859591188459241, -15.0 ], [ 74.616385803972918, 42.859383623344463, -15.0 ] ] } },
{ "type": "Feature", "properties": { "pipe_id": 7, "pipe_name": "BW7", "diameter": 500, "material": "iron" }, "geometry": { "type": "LineString", "coordinates": [ [ 74.616575548728406, 42.867793932773075, -15.0 ], [ 74.616625513436276, 42.866232727966512, -15.0 ], [ 74.616566723056408, 42.864878682773742, -15.0 ], [ 74.616506711755761, 42.863722275300219, -15.0 ], [ 74.616514601677395, 42.86244750969167, -15.0 ], [ 74.616521145641173, 42.8613901457528, -15.0 ], [ 74.616411506444521, 42.859571469642013, -15.0 ] ] } },
{ "type": "Feature", "properties": { "pipe_id": 8, "pipe_name": "BW8", "diameter": 300, "material": "iron" }, "geometry": { "type": "LineString", "coordinates": [ [ 74.616533517182603, 42.863732247188061, -15.0 ], [ 74.6169362105842, 42.863783005722958, -15.0 ], [ 74.617190405485118, 42.863951851726519, -15.0 ], [ 74.617226126741514, 42.86469312915861, -15.0 ], [ 74.617736782862565, 42.864665188910699, -15.0 ], [ 74.618784535130416, 42.86467856436154, -15.0 ], [ 74.619562282811259, 42.864908439715535, -15.0 ], [ 74.620044981785199, 42.865058274180953, -15.0 ], [ 74.620474311825873, 42.865148637080416, -15.0 ], [ 74.620984486717219, 42.865199737600157, -15.0 ], [ 74.620870244890327, 42.866306155076153, -15.0 ], [ 74.618585880682417, 42.866397388984687, -15.0 ], [ 74.617551289263446, 42.866423584079079, -15.0 ] ] } },
{ "type": "Feature", "properties": { "pipe_id": 9, "pipe_name": "BW9", "diameter": 300, "material": "iron" }, "geometry": { "type": "LineString", "coordinates": [ [ 74.620997980788886, 42.865189900163848, -15.0 ], [ 74.622019538767731, 42.865094456138792, -15.0 ], [ 74.622731278884331, 42.865136332020711, -15.0 ], [ 74.622608089017191, 42.865511446040848, -15.0 ], [ 74.62253905417721, 42.865817563720846, -15.0 ], [ 74.622522911001155, 42.866262205189592, -15.0 ], [ 74.621851158050077, 42.866269870608662, -15.0 ], [ 74.621018017356633, 42.866306644307556, -15.0 ], [ 74.620870244890327, 42.866306155076153, -15.0 ], [ 74.620741717790054, 42.867550874325588, -15.0 ], [ 74.619075460552466, 42.867614517456268, -15.0 ], [ 74.618363024970677, 42.867681319645705, -15.0 ] ] } },
{ "type": "Feature", "properties": { "pipe_id": 10, "pipe_name": "bW10", "diameter": 200, "material": "paper" }, "geometry": { "type": "LineString", "coordinates": [ [ 74.622524356032287, 42.866025039456552, -15.0 ], [ 74.622967731653887, 42.866016618260119, -15.0 ], [ 74.623007191204252, 42.866155097653497, -15.0 ], [ 74.623437073810635, 42.8661565123152, -15.0 ], [ 74.623490088471726, 42.866275271912635, -15.0 ], [ 74.623812381058144, 42.866296095516304, -15.0 ], [ 74.623796606917523, 42.866681445725845, -15.0 ], [ 74.623688535097898, 42.866779911604269, -15.0 ], [ 74.623766558346375, 42.867205098435655, -15.0 ], [ 74.623725956066508, 42.867254375518201, -15.0 ], [ 74.623724155447277, 42.867550832660051, -15.0 ], [ 74.622769970918256, 42.867606985427166, -15.0 ], [ 74.622731594221591, 42.867290631720202, -15.0 ], [ 74.622557974736168, 42.867122063756703, -15.0 ], [ 74.622534117143218, 42.866627879965399, -15.0 ], [ 74.622615984852118, 42.866420625668034, -15.0 ], [ 74.622522128268628, 42.866390669957539, -15.0 ], [ 74.622522971211126, 42.86625232328425, -15.0 ] ] } },
{ "type": "Feature", "properties": { "pipe_id": 12, "pipe_name": "BW12", "diameter": 300, "material": "plumb" }, "geometry": { "type": "LineString", "coordinates": [ [ 74.614708567278285, 42.867728372656892, -15.0 ], [ 74.614661837807688, 42.86660165581187, -15.0 ], [ 74.614498265057108, 42.864822326441249, -15.0 ], [ 74.614396947073914, 42.863833774612381, -15.0 ] ] } },
{ "type": "Feature", "properties": { "pipe_id": 11, "pipe_name": "BW11", "diameter": 300, "material": "plumb" }, "geometry": { "type": "LineString", "coordinates": [ [ 74.616623740056127, 42.866519303019317, -15.0 ], [ 74.614688705637249, 42.866601746234593, -15.0 ], [ 74.61298235177658, 42.86663551945572, -15.0 ], [ 74.613002058926185, 42.867781909828771, -15.0 ], [ 74.614708567278285, 42.867728372656892, -15.0 ], [ 74.61477450909122, 42.867926236553494, -15.0 ], [ 74.61578250336099, 42.867860448919359, -15.0 ], [ 74.615756554370989, 42.867712130327327, -15.0 ], [ 74.616038549185902, 42.867732840564415, -15.0 ], [ 74.616455252953187, 42.867694708846599, -15.0 ], [ 74.616589166383861, 42.867764332073989, -15.0 ] ] } },
{ "type": "Feature", "properties": { "pipe_id": 1, "pipe_name": "bw1", "diameter": 300, "material": "steel" }, "geometry": { "type": "LineString", "coordinates": [ [ 74.613478617341002, 42.862457065040736, -15.0 ], [ 74.613421439989537, 42.860855970022278, -15.0 ], [ 74.613349017326868, 42.859680371614076, -15.0 ], [ 74.613162320712149, 42.859462334468859, -15.0 ], [ 74.61313690292846, 42.859095992699508, -15.0 ] ] } },
{ "type": "Feature", "properties": { "pipe_id": 2, "pipe_name": "BW2", "diameter": 500, "material": "vinyl" }, "geometry": { "type": "LineString", "coordinates": [ [ 74.61168318205371, 42.859575295210654, -15.0 ], [ 74.612932826228928, 42.859510351805746, -15.0 ], [ 74.613165572588699, 42.859466132249644, -15.0 ], [ 74.613188349773836, 42.859461804776025, -15.0 ], [ 74.616399297497551, 42.85937378643807, -15.0 ], [ 74.619207388112955, 42.85926457469003, -15.0 ], [ 74.622243818625847, 42.8591560476506, -15.0 ], [ 74.622387783973124, 42.861982807049138, -15.0 ], [ 74.622266586436254, 42.862031817823741, -15.0 ], [ 74.620949977514201, 42.862057112933655, -15.0 ], [ 74.619391331858864, 42.862121117014162, -15.0 ], [ 74.619468955822015, 42.862605598433042, -15.0 ], [ 74.619574418070101, 42.86293205851198, -15.0 ], [ 74.619775065997544, 42.863071074546831, -15.0 ] ] } }
]
}
