{"type": "FeatureCollection", "features": [{"type": "Feature", "properties": {"name": "Bhotekoshi Khola Hydropower Project", "capacity_mw": 33.5, "river": "Bhote Koshi", "status": "Survey", "province": "Province 3", "district": "RASUWA", "municipality": "Gosaikunda", "adm0_pcode": "NPL-20250729", "adm0_name": "Nepal", "adm1_pcode": "NPL-20240321-3", "adm1_name": "Bagmati", "adm2_pcode": "NPL-20240321-3-10", "adm2_name": "Rasuwa", "adm3_pcode": "NPL-20240321-3-10-02", "adm3_name": "Gosaikunda"}, "geometry": {"type": "Point", "coordinates": [85.34583333000006, 28.17083333000005]}}, {"type": "Feature", "properties": {"name": "Devighat", "capacity_mw": 14.1, "river": "Trishuli", "status": "Operation", "province": "Province 3", "district": "NUWAKOT", "municipality": "Panchakanya", "adm0_pcode": "NPL-20250729", "adm0_name": "Nepal", "adm1_pcode": "NPL-20240321-3", "adm1_name": "Bagmati", "adm2_pcode": "NPL-20240321-3-09", "adm2_name": "Nuwakot", "adm3_pcode": "NPL-20240321-3-09-01", "adm3_name": "Bidur"}, "geometry": {"type": "Point", "coordinates": [85.13888889000003, 27.902222220000056]}}, {"type": "Feature", "properties": {"name": "Rasuwa Bhotekoshi", "capacity_mw": 120, "river": "Bhote koshi", "status": "Under Construction", "province": "Province 3", "district": "RASUWA", "municipality": "Gosaikunda", "adm0_pcode": "NPL-20250729", "adm0_name": "Nepal", "adm1_pcode": "NPL-20240321-3", "adm1_name": "Bagmati", "adm2_pcode": "NPL-20240321-3-10", "adm2_name": "Rasuwa", "adm3_pcode": "NPL-20240321-3-10-02", "adm3_name": "Gosaikunda"}, "geometry": {"type": "Point", "coordinates": [85.35416667000004, 28.204722220000065]}}, {"type": "Feature", "properties": {"name": "Rasuwagadhi", "capacity_mw": 111, "river": "Bhote koshi", "status": "Under Construction", "province": "Province 3", "district": "RASUWA", "municipality": "Gosaikunda", "adm0_pcode": "NPL-20250729", "adm0_name": "Nepal", "adm1_pcode": "NPL-20240321-3", "adm1_name": "Bagmati", "adm2_pcode": "NPL-20240321-3-10", "adm2_name": "Rasuwa", "adm3_pcode": "NPL-20240321-3-10-02", "adm3_name": "Gosaikunda"}, "geometry": {"type": "Point", "coordinates": [85.37013889000008, 28.251111110000068]}}, {"type": "Feature", "properties": {"name": "Trishuli", "capacity_mw": 24, "river": "Trishuli", "status": "Operation", "province": "Province 3", "district": "NUWAKOT", "municipality": "Suryagadhi", "adm0_pcode": "NPL-20250729", "adm0_name": "Nepal", "adm1_pcode": "NPL-20240321-3", "adm1_name": "Bagmati", "adm2_pcode": "NPL-20240321-3-09", "adm2_name": "Nuwakot", "adm3_pcode": "NPL-20240321-3-09-01", "adm3_name": "Bidur"}, "geometry": {"type": "Point", "coordinates": [85.16611111000003, 27.946388890000037]}}, {"type": "Feature", "properties": {"name": "Trishuli Galchhi", "capacity_mw": 75, "river": "Trishuli", "status": "Under Construction", "province": "Province 3", "district": "NUWAKOT", "municipality": "Meghang", "adm0_pcode": "NPL-20250729", "adm0_name": "Nepal", "adm1_pcode": "NPL-20240321-3", "adm1_name": "Bagmati", "adm2_pcode": "NPL-20240321-3-09", "adm2_name": "Nuwakot", "adm3_pcode": "NPL-20240321-3-09-02", "adm3_name": "Belkotgadhi"}, "geometry": {"type": "Point", "coordinates": [85.02291667000009, 27.827777780000076]}}, {"type": "Feature", "properties": {"name": "Upper Trishuli 3A", "capacity_mw": 60, "river": "Trishuli", "status": "Under Construction", "province": "Province 3", "district": "RASUWA", "municipality": "Kalika", "adm0_pcode": "NPL-20250729", "adm0_name": "Nepal", "adm1_pcode": "NPL-20240321-3", "adm1_name": "Bagmati", "adm2_pcode": "NPL-20240321-3-10", "adm2_name": "Rasuwa", "adm3_pcode": "NPL-20240321-3-10-03", "adm3_name": "Uttargaya"}, "geometry": {"type": "Point", "coordinates": [85.19916667000007, 28.046527780000076]}}, {"type": "Feature", "properties": {"name": "Upper Trishuli 3B", "capacity_mw": 37, "river": "Trishuli", "status": "Under Construction", "province": "Province 3", "district": "RASUWA", "municipality": "Uttargaya", "adm0_pcode": "NPL-20250729", "adm0_name": "Nepal", "adm1_pcode": "NPL-20240321-3", "adm1_name": "Bagmati", "adm2_pcode": "NPL-20240321-3-10", "adm2_name": "Rasuwa", "adm3_pcode": "NPL-20240321-3-10-03", "adm3_name": "Uttargaya"}, "geometry": {"type": "Point", "coordinates": [85.18500000000006, 28.00458333000006]}}, {"type": "Feature", "properties": {"name": "Upper Trishuli-1", "capacity_mw": 216, "river": "Trishuli", "status": "Under Construction", "province": "Province 3", "district": "RASUWA", "municipality": "Parbati Kunda", "adm0_pcode": "NPL-20250729", "adm0_name": "Nepal", "adm1_pcode": "NPL-20240321-3", "adm1_name": "Bagmati", "adm2_pcode": "NPL-20240321-3-10", "adm2_name": "Rasuwa", "adm3_pcode": "NPL-20240321-3-10-01", "adm3_name": "Aamachhodingmo"}, "geometry": {"type": "Point", "coordinates": [85.25597222000005, 28.10125000000005]}}, {"type": "Feature", "properties": {"name": "Upper Trishuli-I Cascade HEP", "capacity_mw": 24.6, "river": "Trishuli Ganga", "status": "Survey", "province": "Province 3", "district": "RASUWA", "municipality": "Parbati Kunda", "adm0_pcode": "NPL-20250729", "adm0_name": "Nepal", "adm1_pcode": "NPL-20240321-3", "adm1_name": "Bagmati", "adm2_pcode": "NPL-20240321-3-10", "adm2_name": "Rasuwa", "adm3_pcode": "NPL-20240321-3-10-04", "adm3_name": "Kalika"}, "geometry": {"type": "Point", "coordinates": [85.20902778000004, 28.072500000000048]}}]}